NORAD_CAT_ID,OBJECT_NAME,OBJECT_TYPE,EPOCH,MEAN_MOTION,ECCENTRICITY,INCLINATION,RA_OF_ASC_NODE,ARG_OF_PERICENTER,MEAN_ANOMALY,BSTAR,MEAN_MOTION_DOT,MEAN_MOTION_DDOT,TLE_LINE0,TLE_LINE1,TLE_LINE2,SEMIMAJOR_AXIS,PERIOD,APOGEE,PERIGEE,DECAYED
53806.0,STARLINK-4768,PAYLOAD,2023-12-18 03:41:57,15.08856426,0.0001717,53.2179,296.5778,104.3988,255.7195,0.00024262,3.577e-05,0.0,0 STARLINK-4768,1 53806U 22111AK  23352.15413362  .00003577  00000-0  24262-3 0  9990,2 53806  53.2179 296.5778 0001717 104.3988 255.7195 15.08856426 70550,6917.83,95.437,540.883,538.507,0.0
53806.0,STARLINK-4768,PAYLOAD,2023-12-19 01:57:23,15.08830473,0.0001609,53.2176,292.4184,118.3024,241.8131,-6.686e-05,-1.352e-05,0.0,0 STARLINK-4768,1 53806U 22111AK  23353.08152190 -.00001352  00000-0 -66860-4 0  9994,2 53806  53.2176 292.4184 0001609 118.3024 241.8131 15.08830473 70694,6917.91,95.438,540.888,538.661,0.0
53806.0,STARLINK-4768,PAYLOAD,2023-12-19 03:32:46,15.08829076,0.0001403,53.2176,292.1209,91.1404,268.9749,-6.5903e-05,-1.336e-05,0.0,0 STARLINK-4768,1 53806U 22111AK  23353.14776493 -.00001336  00000-0 -65903-4 0  9998,2 53806  53.2176 292.1209 0001403  91.1404 268.9749 15.08829076 71515,6917.914,95.438,540.749,538.808,0.0
53806.0,STARLINK-4768,PAYLOAD,2023-12-20 03:23:32,15.08854218,0.0001506,53.2172,287.6574,93.8822,266.2342,0.00015417,2.167e-05,0.0,0 STARLINK-4768,1 53806U 22111AK  23354.14134553  .00002167  00000-0  15417-3 0  9999,2 53806  53.2172 287.6574 0001506  93.8822 266.2342 15.08854218 70854,6917.837,95.437,540.744,538.66,0.0
53806.0,STARLINK-4768,PAYLOAD,2023-12-21 03:14:20,15.08849546,0.0001874,53.2182,283.1995,64.2508,295.8677,0.00038619,5.865e-05,0.0,0 STARLINK-4768,1 53806U 22111AK  23355.13495446  .00005865  00000-0  38619-3 0  9997,2 53806  53.2182 283.1995 0001874  64.2508 295.8677 15.08849546 71009,6917.851,95.437,541.013,538.42,0.0
53806.0,STARLINK-4768,PAYLOAD,2023-12-22 01:29:44,15.08842881,0.0001878,53.2186,279.0378,64.6155,295.5031,-3.9525e-05,-9.17e-06,0.0,0 STARLINK-4768,1 53806U 22111AK  23356.06231642 -.00000917  00000-0 -39525-4 0  9999,2 53806  53.2186 279.0378 0001878  64.6155 295.5031 15.08842881 71149,6917.872,95.437,541.036,538.437,0.0
53806.0,STARLINK-4768,PAYLOAD,2023-12-22 22:09:45,15.0884115,0.0001481,53.2172,275.1755,67.32,292.7948,-9.6886e-05,-1.83e-05,0.0,0 STARLINK-4768,1 53806U 22111AK  23356.92343822 -.00001830  00000-0 -96886-4 0  9996,2 53806  53.2172 275.1755 0001481  67.3200 292.7948 15.08841150 72089,6917.877,95.437,540.766,538.717,0.0
53806.0,STARLINK-4768,PAYLOAD,2023-12-23 01:20:31,15.0884328,0.0001553,53.2172,274.5805,95.1735,264.9434,-4.076e-05,-9.37e-06,0.0,0 STARLINK-4768,1 53806U 22111AK  23357.05591622 -.00000937  00000-0 -40760-4 0  9991,2 53806  53.2172 274.5805 0001553  95.1735 264.9434 15.08843280 72100,6917.87,95.437,540.81,538.661,0.0
53806.0,STARLINK-4768,PAYLOAD,2023-12-23 18:49:45,15.08839108,0.0001673,53.2179,271.3047,108.0401,252.0774,4.1429e-05,3.71e-06,0.0,0 STARLINK-4768,1 53806U 22111AK  23357.78455948  .00000371  00000-0  41429-4 0  9994,2 53806  53.2179 271.3047 0001673 108.0401 252.0774 15.08839108 71408,6917.883,95.438,540.905,538.591,0.0
53806.0,STARLINK-4768,PAYLOAD,2023-12-23 22:00:32,15.08832251,0.0001884,53.2181,270.7155,119.1291,240.989,0.00029983,4.486e-05,0.0,0 STARLINK-4768,1 53806U 22111AK  23357.91704210  .00004486  00000-0  29983-3 0  9999,2 53806  53.2181 270.7155 0001884 119.1291 240.9890 15.08832251 72237,6917.904,95.438,541.072,538.466,0.0
53806.0,STARLINK-4768,PAYLOAD,2023-12-24 04:22:04,15.08846314,0.0001508,53.2179,269.5175,91.4893,268.6272,0.00012769,1.745e-05,0.0,0 STARLINK-4768,1 53806U 22111AK  23358.18199355  .00001745  00000-0  12769-3 0  9996,2 53806  53.2179 269.5175 0001508  91.4893 268.6272 15.08846314 71465,6917.861,95.437,540.769,538.683,0.0
53806.0,STARLINK-4768,PAYLOAD,2023-12-24 21:51:19,15.08841018,0.0001552,53.2166,266.2451,107.0386,253.0776,2.6257e-05,1.3e-06,0.0,0 STARLINK-4768,1 53806U 22111AK  23358.91063807  .00000130  00000-0  26257-4 0  9994,2 53806  53.2166 266.2451 0001552 107.0386 253.0776 15.08841018 72387,6917.877,95.437,540.816,538.669,0.0
53806.0,STARLINK-4768,PAYLOAD,2023-12-25 01:02:05,15.08844534,0.0001571,53.2167,265.6498,106.2473,253.8692,7.6441e-05,9.29e-06,0.0,0 STARLINK-4768,1 53806U 22111AK  23359.04311637  .00000929  00000-0  76441-4 0  9992,2 53806  53.2167 265.6498 0001571 106.2473 253.8692 15.08844534 71594,6917.867,95.437,540.818,538.645,0.0
53806.0,STARLINK-4768,PAYLOAD,2023-12-25 21:42:06,15.08837612,0.0001565,53.2169,261.7844,106.5296,253.5869,2.6999e-06,-2.45e-06,0.0,0 STARLINK-4768,1 53806U 22111AK  23359.90424427 -.00000245  00000-0  26999-5 0  9995,2 53806  53.2169 261.7844 0001565 106.5296 253.5869 15.08837612 72534,6917.888,95.438,540.835,538.67,0.0
53806.0,STARLINK-4768,PAYLOAD,2023-12-25 23:17:29,15.08837499,0.0001562,53.2173,261.4871,106.4568,253.6596,-5.3948e-06,-3.74e-06,0.0,0 STARLINK-4768,1 53806U 22111AK  23359.97048435 -.00000374  00000-0 -53948-5 0  9991,2 53806  53.2173 261.4871 0001562 106.4568 253.6596 15.08837499 71736,6917.888,95.438,540.834,538.672,0.0
53806.0,STARLINK-4768,PAYLOAD,2023-12-26 04:03:39,15.08838276,0.0001531,53.2174,260.5963,105.6286,254.4875,-1.1427e-06,-3.06e-06,0.0,0 STARLINK-4768,1 53806U 22111AK  23360.16920414 -.00000306  00000-0 -11427-5 0  9991,2 53806  53.2174 260.5963 0001531 105.6286 254.4875 15.08838276 72579,6917.886,95.438,540.81,538.692,0.0
53806.0,STARLINK-4768,PAYLOAD,2023-12-26 21:32:53,15.08829449,0.0001703,53.2175,257.3258,111.8514,248.2659,0.00015576,2.191e-05,0.0,0 STARLINK-4768,1 53806U 22111AK  23360.89784610  .00002191  00000-0  15576-3 0  9996,2 53806  53.2175 257.3258 0001703 111.8514 248.2659 15.08829449 72680,6917.913,95.438,540.956,538.6,0.0
53806.0,STARLINK-4768,PAYLOAD,2023-12-27 02:19:02,15.0884714,0.0001436,53.2171,256.4321,91.1614,268.9542,7.276e-05,8.7e-06,0.0,0 STARLINK-4768,1 53806U 22111AK  23361.09655927  .00000870  00000-0  72760-4 0  9998,2 53806  53.2171 256.4321 0001436  91.1614 268.9542 15.08847140 71903,6917.859,95.437,540.717,538.73,0.0
53806.0,STARLINK-4768,PAYLOAD,2023-12-27 21:23:40,15.08839733,0.0001522,53.2173,252.8668,82.6238,277.4928,8.8871e-05,1.127e-05,0.0,0 STARLINK-4768,1 53806U 22111AK  23361.89144537  .00001127  00000-0  88871-4 0  9992,2 53806  53.2173 252.8668 0001522  82.6238 277.4928 15.08839733 72837,6917.881,95.438,540.799,538.693,0.0
53806.0,STARLINK-4768,PAYLOAD,2023-12-28 02:09:49,15.08844899,0.0001412,53.2171,251.9731,93.0944,267.021,0.00013488,1.86e-05,0.0,0 STARLINK-4768,1 53806U 22111AK  23362.09015955  .00001860  00000-0  13488-3 0  9991,2 53806  53.2171 251.9731 0001412  93.0944 267.0210 15.08844899 72056,6917.865,95.437,540.707,538.754,0.0
53806.0,STARLINK-4768,PAYLOAD,2023-12-28 21:14:27,15.08849368,0.0001354,53.2169,248.4047,85.9283,274.1863,8.444e-05,1.057e-05,0.0,0 STARLINK-4768,1 53806U 22111AK  23362.88503502  .00001057  00000-0  84440-4 0  9993,2 53806  53.2169 248.4047 0001354  85.9283 274.1863 15.08849368 72986,6917.852,95.437,540.653,538.78,0.0
53806.0,STARLINK-4768,PAYLOAD,2023-12-29 02:00:35,15.08855361,0.0001625,53.2173,247.5116,102.0741,258.0433,8.8329e-05,1.119e-05,0.0,0 STARLINK-4768,1 53806U 22111AK  23363.08374911  .00001119  00000-0  88329-4 0  9995,2 53806  53.2173 247.5116 0001625 102.0741 258.0433 15.08855361 72208,6917.833,95.437,540.823,538.574,0.0
53806.0,STARLINK-4768,PAYLOAD,2023-12-29 22:40:38,15.08835215,0.0001436,53.2167,243.6473,93.8652,266.2505,-2.6827e-05,-7.15e-06,0.0,0 STARLINK-4768,1 53806U 22111AK  23363.94488601 -.00000715  00000-0 -26827-4 0  9990,2 53806  53.2167 243.6473 0001436  93.8652 266.2505 15.08835215 73143,6917.895,95.438,540.753,538.767,0.0
53806.0,STARLINK-4768,PAYLOAD,2023-12-30 19:20:38,15.088446,0.0001459,53.2162,239.7828,94.8774,265.2384,-4.3967e-05,-9.88e-06,0.0,0 STARLINK-4768,1 53806U 22111AK  23364.80600209 -.00000988  00000-0 -43967-4 0  9992,2 53806  53.2162 239.7828 0001459  94.8774 265.2384 15.08844600 72465,6917.866,95.437,540.741,538.722,0.0
53806.0,STARLINK-4768,PAYLOAD,2023-12-30 22:31:24,15.08846796,0.0001457,53.2164,239.1882,84.562,275.5538,-2.3189e-05,-6.57e-06,0.0,0 STARLINK-4768,1 53806U 22111AK  23364.93848002 -.00000657  00000-0 -23189-4 0  9998,2 53806  53.2164 239.1882 0001457  84.5620 275.5538 15.08846796 73290,6917.86,95.437,540.733,538.717,0.0
53806.0,STARLINK-4768,PAYLOAD,2023-12-31 19:11:26,15.08832378,0.0001545,53.2164,235.3215,88.5888,271.5281,8.4986e-05,1.065e-05,0.0,0 STARLINK-4768,1 53806U 22111AK  23365.79960891  .00001065  00000-0  84986-4 0  9998,2 53806  53.2164 235.3215 0001545  88.5888 271.5281 15.08832378 72613,6917.904,95.438,540.838,538.7,0.0
53806.0,STARLINK-4768,PAYLOAD,2023-12-31 22:22:12,15.08833653,0.0001541,53.2163,234.727,89.138,270.9788,9.1256e-05,1.164e-05,0.0,0 STARLINK-4768,1 53806U 22111AK  23365.93208814  .00001164  00000-0  91256-4 0  9992,2 53806  53.2163 234.7270 0001541  89.1380 270.9788 15.08833653 73440,6917.9,95.438,540.831,538.699,0.0
53806.0,STARLINK-4768,PAYLOAD,2024-01-01 22:12:59,15.08841656,0.0001545,53.2162,230.2663,91.161,268.956,6.3537e-05,7.23e-06,0.0,0 STARLINK-4768,1 53806U 22111AK  24001.92568605  .00000723  00000-0  63537-4 0  9997,2 53806  53.2162 230.2663 0001545  91.1610 268.9560 15.08841656 72782,6917.875,95.437,540.809,538.672,0.0
53806.0,STARLINK-4768,PAYLOAD,2024-01-02 18:53:00,15.08838313,0.000153,53.216,226.4013,90.8407,269.2761,4.1903e-05,3.79e-06,0.0,0 STARLINK-4768,1 53806U 22111AK  24002.78681013  .00000379  00000-0  41903-4 0  9991,2 53806  53.2160 226.4013 0001530  90.8407 269.2761 15.08838313 72918,6917.886,95.438,540.809,538.692,0.0
53806.0,STARLINK-4768,PAYLOAD,2024-01-02 20:28:23,15.0883705,0.0001539,53.2161,226.104,89.0774,271.0395,4.9473e-05,4.99e-06,0.0,0 STARLINK-4768,1 53806U 22111AK  24002.85305054  .00000499  00000-0  49473-4 0  9990,2 53806  53.2161 226.1040 0001539  89.0774 271.0395 15.08837050 73734,6917.889,95.438,540.819,538.69,0.0
